EUTELSAT 139 WEST A     
1 28187U 04008A   26062.93545651 -.00000195  00000+0  00000+0 0  9996
2 28187   5.5619  73.2713 0001108  39.1109 347.7532  1.00833381 80309
EUTELSAT 174A           
1 28924U 05052A   26062.90616302 -.00000003  00000+0  00000+0 0  9992
2 28924   3.9520  77.8346 0006270 268.1150 315.8997  1.00273559 51278
EUTELSAT 33F            
1 29270U 06032A   26063.09222072  .00000143  00000+0  00000+0 0  9998
2 29270   1.3902  83.4810 0003564 257.5914 247.0679  1.00269121 46256
EUTELSAT HOTBIRD 13C    
1 33459U 08065A   26063.08030776 -.00000294  00000+0  00000+0 0  9995
2 33459   2.6804  80.4521 0003856 274.7166 145.2417  1.00269118 46294
EUTELSAT 36B            
1 36101U 09065A   26063.09568740  .00000100  00000+0  00000+0 0  9996
2 36101   0.2262  77.5548 0005875 267.2251 261.9811  1.00271585 59653
EUTELSAT KA-SAT 9A      
1 37258U 10069A   26063.15878102  .00000049  00000+0  00000+0 0  9991
2 37258   0.0562 356.8144 0002584 146.3536  84.9010  1.00273066 42955
EUTELSAT 7 WEST A       
1 37816U 11051A   26063.15557435 -.00000073  00000+0  00000+0 0  9994
2 37816   0.0691   7.8512 0001257 235.4830 327.2525  1.00271816 52825
EUTELSAT 16A            
1 37836U 11057A   26063.16016770  .00000091  00000+0  00000+0 0  9994
2 37836   0.0573 356.7586 0005505 350.4676 248.3272  1.00271553  6288
EUTELSAT 21B            
1 38992U 12062B   26063.16120772  .00000117  00000+0  00000+0 0  9992
2 38992   0.0680 357.2417 0002849 342.2490 262.0345  1.00271480 48774
EUTELSAT 70B            
1 39020U 12069A   26063.09967409 -.00000056  00000+0  00000+0 0  9993
2 39020   0.0661 338.0691 0001993 340.5953 309.5718  1.00273478 48456
EUTELSAT 117 WEST A     
1 39122U 13012A   26063.13382090 -.00000026  00000+0  00000+0 0  9994
2 39122   0.0543 292.4330 0002859  45.9119 114.9068  1.00276056 47374
EUTELSAT 7B             
1 39163U 13022A   26063.15834770  .00000035  00000+0  00000+0 0  9998
2 39163   0.0690 350.6989 0006310   2.6310 232.5582  1.00272240 46893
EXPRESS-AT1             
1 39612U 14010A   26063.09672742  .00000066  00000+0  00000+0 0  9991
2 39612   0.0211 241.9694 0000390  26.1693 344.5127  1.00271027 43767
EXPRESS-AT2             
1 39613U 14010B   26063.21850450  .00000000  00000+0  00000+0 0  9998
2 39613   0.0216 158.6695 0001110 110.0000 111.8283  1.00270282 43449
EUTELSAT 3B             
1 39773U 14030A   26063.15756770  .00000008  00000+0  00000+0 0  9998
2 39773   0.0653 336.0030 0001124 285.9469 319.7799  1.00273951 43012
EUTELSAT 115 WEST B     
1 40425U 15010B   26063.02544715 -.00000038  00000+0  00000+0 0  9997
2 40425   0.0374 343.9033 0000152 116.2374 315.8902  1.00271736 40333
EUTELSAT 8 WEST B       
1 40875U 15039B   26063.15540102 -.00000078  00000+0  00000+0 0  9991
2 40875   0.0667 356.5476 0003806 347.0412 226.2577  1.00271641 38609
