[{"OBJECT_NAME":"EUTELSAT 139 WEST A","OBJECT_ID":"2004-008A","EPOCH":"2026-03-03T22:27:03.442464","MEAN_MOTION":1.00833381,"ECCENTRICITY":0.0001108,"INCLINATION":5.5619,"RA_OF_ASC_NODE":73.2713,"ARG_OF_PERICENTER":39.1109,"MEAN_ANOMALY":347.7532,"EPHEMERIS_TYPE":0,"CLASSIFICATION_TYPE":"U","NORAD_CAT_ID":28187,"ELEMENT_SET_NO":999,"REV_AT_EPOCH":8030,"BSTAR":0,"MEAN_MOTION_DOT":-1.95e-6,"MEAN_MOTION_DDOT":0},{"OBJECT_NAME":"EUTELSAT 174A","OBJECT_ID":"2005-052A","EPOCH":"2026-03-03T21:44:52.484928","MEAN_MOTION":1.00273559,"ECCENTRICITY":0.000627,"INCLINATION":3.952,"RA_OF_ASC_NODE":77.8346,"ARG_OF_PERICENTER":268.115,"MEAN_ANOMALY":315.8997,"EPHEMERIS_TYPE":0,"CLASSIFICATION_TYPE":"U","NORAD_CAT_ID":28924,"ELEMENT_SET_NO":999,"REV_AT_EPOCH":5127,"BSTAR":0,"MEAN_MOTION_DOT":-3.0e-8,"MEAN_MOTION_DDOT":0},{"OBJECT_NAME":"EUTELSAT 33F","OBJECT_ID":"2006-032A","EPOCH":"2026-03-04T02:12:47.870208","MEAN_MOTION":1.00269121,"ECCENTRICITY":0.0003564,"INCLINATION":1.3902,"RA_OF_ASC_NODE":83.481,"ARG_OF_PERICENTER":257.5914,"MEAN_ANOMALY":247.0679,"EPHEMERIS_TYPE":0,"CLASSIFICATION_TYPE":"U","NORAD_CAT_ID":29270,"ELEMENT_SET_NO":999,"REV_AT_EPOCH":4625,"BSTAR":0,"MEAN_MOTION_DOT":1.43e-6,"MEAN_MOTION_DDOT":0},{"OBJECT_NAME":"EUTELSAT HOTBIRD 13C","OBJECT_ID":"2008-065A","EPOCH":"2026-03-04T01:55:38.590464","MEAN_MOTION":1.00269118,"ECCENTRICITY":0.0003856,"INCLINATION":2.6804,"RA_OF_ASC_NODE":80.4521,"ARG_OF_PERICENTER":274.7166,"MEAN_ANOMALY":145.2417,"EPHEMERIS_TYPE":0,"CLASSIFICATION_TYPE":"U","NORAD_CAT_ID":33459,"ELEMENT_SET_NO":999,"REV_AT_EPOCH":4629,"BSTAR":0,"MEAN_MOTION_DOT":-2.94e-6,"MEAN_MOTION_DDOT":0},{"OBJECT_NAME":"EUTELSAT 36B","OBJECT_ID":"2009-065A","EPOCH":"2026-03-04T02:17:47.391360","MEAN_MOTION":1.00271585,"ECCENTRICITY":0.0005875,"INCLINATION":0.2262,"RA_OF_ASC_NODE":77.5548,"ARG_OF_PERICENTER":267.2251,"MEAN_ANOMALY":261.9811,"EPHEMERIS_TYPE":0,"CLASSIFICATION_TYPE":"U","NORAD_CAT_ID":36101,"ELEMENT_SET_NO":999,"REV_AT_EPOCH":5965,"BSTAR":0,"MEAN_MOTION_DOT":1.0e-6,"MEAN_MOTION_DDOT":0},{"OBJECT_NAME":"EUTELSAT KA-SAT 9A","OBJECT_ID":"2010-069A","EPOCH":"2026-03-04T03:48:38.680128","MEAN_MOTION":1.00273066,"ECCENTRICITY":0.0002584,"INCLINATION":0.0562,"RA_OF_ASC_NODE":356.8144,"ARG_OF_PERICENTER":146.3536,"MEAN_ANOMALY":84.901,"EPHEMERIS_TYPE":0,"CLASSIFICATION_TYPE":"U","NORAD_CAT_ID":37258,"ELEMENT_SET_NO":999,"REV_AT_EPOCH":4295,"BSTAR":0,"MEAN_MOTION_DOT":4.9e-7,"MEAN_MOTION_DDOT":0},{"OBJECT_NAME":"EUTELSAT 7 WEST A","OBJECT_ID":"2011-051A","EPOCH":"2026-03-04T03:44:01.623840","MEAN_MOTION":1.00271816,"ECCENTRICITY":0.0001257,"INCLINATION":0.0691,"RA_OF_ASC_NODE":7.8512,"ARG_OF_PERICENTER":235.483,"MEAN_ANOMALY":327.2525,"EPHEMERIS_TYPE":0,"CLASSIFICATION_TYPE":"U","NORAD_CAT_ID":37816,"ELEMENT_SET_NO":999,"REV_AT_EPOCH":5282,"BSTAR":0,"MEAN_MOTION_DOT":-7.3e-7,"MEAN_MOTION_DDOT":0},{"OBJECT_NAME":"EUTELSAT 16A","OBJECT_ID":"2011-057A","EPOCH":"2026-03-04T03:50:38.489280","MEAN_MOTION":1.00271553,"ECCENTRICITY":0.0005505,"INCLINATION":0.0573,"RA_OF_ASC_NODE":356.7586,"ARG_OF_PERICENTER":350.4676,"MEAN_ANOMALY":248.3272,"EPHEMERIS_TYPE":0,"CLASSIFICATION_TYPE":"U","NORAD_CAT_ID":37836,"ELEMENT_SET_NO":999,"REV_AT_EPOCH":628,"BSTAR":0,"MEAN_MOTION_DOT":9.1e-7,"MEAN_MOTION_DDOT":0},{"OBJECT_NAME":"EUTELSAT 21B","OBJECT_ID":"2012-062B","EPOCH":"2026-03-04T03:52:08.347008","MEAN_MOTION":1.0027148,"ECCENTRICITY":0.0002849,"INCLINATION":0.068,"RA_OF_ASC_NODE":357.2417,"ARG_OF_PERICENTER":342.249,"MEAN_ANOMALY":262.0345,"EPHEMERIS_TYPE":0,"CLASSIFICATION_TYPE":"U","NORAD_CAT_ID":38992,"ELEMENT_SET_NO":999,"REV_AT_EPOCH":4877,"BSTAR":0,"MEAN_MOTION_DOT":1.17e-6,"MEAN_MOTION_DDOT":0},{"OBJECT_NAME":"EUTELSAT 70B","OBJECT_ID":"2012-069A","EPOCH":"2026-03-04T02:23:31.841376","MEAN_MOTION":1.00273478,"ECCENTRICITY":0.0001993,"INCLINATION":0.0661,"RA_OF_ASC_NODE":338.0691,"ARG_OF_PERICENTER":340.5953,"MEAN_ANOMALY":309.5718,"EPHEMERIS_TYPE":0,"CLASSIFICATION_TYPE":"U","NORAD_CAT_ID":39020,"ELEMENT_SET_NO":999,"REV_AT_EPOCH":4845,"BSTAR":0,"MEAN_MOTION_DOT":-5.6e-7,"MEAN_MOTION_DDOT":0},{"OBJECT_NAME":"EUTELSAT 117 WEST A","OBJECT_ID":"2013-012A","EPOCH":"2026-03-04T03:12:42.125760","MEAN_MOTION":1.00276056,"ECCENTRICITY":0.0002859,"INCLINATION":0.0543,"RA_OF_ASC_NODE":292.433,"ARG_OF_PERICENTER":45.9119,"MEAN_ANOMALY":114.9068,"EPHEMERIS_TYPE":0,"CLASSIFICATION_TYPE":"U","NORAD_CAT_ID":39122,"ELEMENT_SET_NO":999,"REV_AT_EPOCH":4737,"BSTAR":0,"MEAN_MOTION_DOT":-2.6e-7,"MEAN_MOTION_DDOT":0},{"OBJECT_NAME":"EUTELSAT 7B","OBJECT_ID":"2013-022A","EPOCH":"2026-03-04T03:48:01.241280","MEAN_MOTION":1.0027224,"ECCENTRICITY":0.000631,"INCLINATION":0.069,"RA_OF_ASC_NODE":350.6989,"ARG_OF_PERICENTER":2.631,"MEAN_ANOMALY":232.5582,"EPHEMERIS_TYPE":0,"CLASSIFICATION_TYPE":"U","NORAD_CAT_ID":39163,"ELEMENT_SET_NO":999,"REV_AT_EPOCH":4689,"BSTAR":0,"MEAN_MOTION_DOT":3.5e-7,"MEAN_MOTION_DDOT":0},{"OBJECT_NAME":"EXPRESS-AT1","OBJECT_ID":"2014-010A","EPOCH":"2026-03-04T02:19:17.249088","MEAN_MOTION":1.00271027,"ECCENTRICITY":3.9e-5,"INCLINATION":0.0211,"RA_OF_ASC_NODE":241.9694,"ARG_OF_PERICENTER":26.1693,"MEAN_ANOMALY":344.5127,"EPHEMERIS_TYPE":0,"CLASSIFICATION_TYPE":"U","NORAD_CAT_ID":39612,"ELEMENT_SET_NO":999,"REV_AT_EPOCH":4376,"BSTAR":0,"MEAN_MOTION_DOT":6.6e-7,"MEAN_MOTION_DDOT":0},{"OBJECT_NAME":"EXPRESS-AT2","OBJECT_ID":"2014-010B","EPOCH":"2026-03-04T05:14:38.788800","MEAN_MOTION":1.00270282,"ECCENTRICITY":0.000111,"INCLINATION":0.0216,"RA_OF_ASC_NODE":158.6695,"ARG_OF_PERICENTER":110,"MEAN_ANOMALY":111.8283,"EPHEMERIS_TYPE":0,"CLASSIFICATION_TYPE":"U","NORAD_CAT_ID":39613,"ELEMENT_SET_NO":999,"REV_AT_EPOCH":4344,"BSTAR":0,"MEAN_MOTION_DOT":0,"MEAN_MOTION_DDOT":0},{"OBJECT_NAME":"EUTELSAT 3B","OBJECT_ID":"2014-030A","EPOCH":"2026-03-04T03:46:53.849280","MEAN_MOTION":1.00273951,"ECCENTRICITY":0.0001124,"INCLINATION":0.0653,"RA_OF_ASC_NODE":336.003,"ARG_OF_PERICENTER":285.9469,"MEAN_ANOMALY":319.7799,"EPHEMERIS_TYPE":0,"CLASSIFICATION_TYPE":"U","NORAD_CAT_ID":39773,"ELEMENT_SET_NO":999,"REV_AT_EPOCH":4301,"BSTAR":0,"MEAN_MOTION_DOT":8.0e-8,"MEAN_MOTION_DDOT":0},{"OBJECT_NAME":"EUTELSAT 115 WEST B","OBJECT_ID":"2015-010B","EPOCH":"2026-03-04T00:36:38.633760","MEAN_MOTION":1.00271736,"ECCENTRICITY":1.52e-5,"INCLINATION":0.0374,"RA_OF_ASC_NODE":343.9033,"ARG_OF_PERICENTER":116.2374,"MEAN_ANOMALY":315.8902,"EPHEMERIS_TYPE":0,"CLASSIFICATION_TYPE":"U","NORAD_CAT_ID":40425,"ELEMENT_SET_NO":999,"REV_AT_EPOCH":4033,"BSTAR":0,"MEAN_MOTION_DOT":-3.8e-7,"MEAN_MOTION_DDOT":0},{"OBJECT_NAME":"EUTELSAT 8 WEST B","OBJECT_ID":"2015-039B","EPOCH":"2026-03-04T03:43:46.648128","MEAN_MOTION":1.00271641,"ECCENTRICITY":0.0003806,"INCLINATION":0.0667,"RA_OF_ASC_NODE":356.5476,"ARG_OF_PERICENTER":347.0412,"MEAN_ANOMALY":226.2577,"EPHEMERIS_TYPE":0,"CLASSIFICATION_TYPE":"U","NORAD_CAT_ID":40875,"ELEMENT_SET_NO":999,"REV_AT_EPOCH":3860,"BSTAR":0,"MEAN_MOTION_DOT":-7.8e-7,"MEAN_MOTION_DDOT":0}]
